FENGYUN 1C DEB          
1 33692U 99025DGD 17341.92297719  .00004725  00000-0  93191-3 0  9994
2 33692  99.1208 229.8794 0024092 245.0114 176.2778 14.62849830506867
